1 29155U 06018A   12050.16871137 -.00000274  00000-0  10000-3 0  9593
2 29155 000.4410 080.4833 0002691 320.6556 093.3524 01.00265657 21050